OBJECT_NAME,OBJECT_ID,EPOCH,MEAN_MOTION,ECCENTRICITY,INCLINATION,RA_OF_ASC_NODE,ARG_OF_PERICENTER,MEAN_ANOMALY,EPHEMERIS_TYPE,CLASSIFICATION_TYPE,NORAD_CAT_ID,ELEMENT_SET_NO,REV_AT_EPOCH,BSTAR,MEAN_MOTION_DOT,MEAN_MOTION_DDOT
ONEWEB-0132,2020-100W,2026-06-16T01:43:16.626144,13.12443616,.0001724,87.8939,350.8940,90.0662,270.0664,0,U,47278,999,26443,-.12588E-2,-.44E-5,0
ONEWEB-0133,2020-100X,2026-06-16T00:17:40.955712,13.12443608,.000167,87.8952,350.8819,89.1914,270.9406,0,U,47279,999,26458,-.11431E-2,-.399E-5,0
ONEWEB-0134,2020-100Y,2026-06-15T23:33:58.866912,13.12440311,.0001629,87.8951,350.8849,97.8114,262.3199,0,U,47280,999,26455,-.65944E-4,-.11E-6,0
ONEWEB-0135,2020-100Z,2026-06-16T00:42:17.216352,13.12444906,.0001531,87.8937,350.8986,95.8620,264.2683,0,U,47281,999,26458,.76319E-3,.287E-5,0
ONEWEB-0136,2020-100AA,2026-06-15T23:19:20.558208,13.12442881,.0001601,87.8946,350.8912,99.2218,260.9091,0,U,47282,999,26450,.8929E-3,.334E-5,0
ONEWEB-0137,2020-100AB,2026-06-16T00:08:07.406592,13.12442951,.0001948,87.8951,350.8945,88.8479,271.2873,0,U,47283,999,26441,-.14467E-2,-.508E-5,0
ONEWEB-0138,2020-100AC,2026-06-16T01:26:12.297120,13.12442405,.0001701,87.8947,350.8891,97.5025,262.6297,0,U,47284,999,26450,-.38165E-3,-.125E-5,0
ONEWEB-0139,2020-100AD,2026-06-16T00:35:09.894912,13.12445090,.00018,87.8946,350.8827,92.1906,267.9429,0,U,47285,999,26457,.45993E-3,.178E-5,0
ONEWEB-0140,2020-100AE,2026-06-15T23:29:06.150624,13.12442228,.0001652,87.8948,350.8825,87.1861,272.9456,0,U,47286,999,26453,.29414E-3,.119E-5,0
ONEWEB-0141,2020-100AF,2026-06-16T00:34:45.943968,13.12445910,.0002122,87.8947,350.8786,89.8591,270.2780,0,U,47287,999,26452,.5206E-3,.2E-5,0
ONEWEB-0142,2020-100AG,2026-06-16T00:18:06.969024,13.12444163,.0002142,87.8942,350.9022,97.8714,262.2657,0,U,47288,999,26451,-.4958E-3,-.166E-5,0
ONEWEB-0143,2020-100AH,2026-06-16T00:32:31.693056,13.12445060,.0001833,87.8947,350.8992,90.3444,269.7895,0,U,47289,999,26449,.20722E-3,.87E-6,0
ONEWEB-0144,2020-100AJ,2026-06-16T03:30:37.884384,13.12443878,.0001843,87.8950,350.8484,102.4183,257.7152,0,U,47290,999,26443,-.96918E-3,-.336E-5,0
ONEWEB-0145,2020-100AK,2026-06-16T00:59:22.303104,13.12443631,.0001822,87.8939,350.8973,92.9461,267.1876,0,U,47291,999,26461,.11775E-2,.436E-5,0
ONEWEB-0146,2020-100AL,2026-06-16T00:54:29.878848,13.12443734,.0001706,87.8946,350.8896,80.6309,279.5013,0,U,47292,999,26452,.10144E-2,.378E-5,0
ONEWEB-0147,2020-100AM,2026-06-16T00:05:41.025984,13.12442964,.0001663,87.8948,350.8780,91.7485,268.3834,0,U,47293,999,26441,-.15471E-2,-.544E-5,0
ONEWEB-0115,2021-025A,2026-06-16T04:26:59.870688,13.13469412,.0001778,87.8956,320.4226,94.6700,265.4632,0,U,48042,999,25346,.75165E-3,.287E-5,0
ONEWEB-0152,2021-025B,2026-06-16T02:56:47.645088,13.13469474,.000173,87.8961,320.4317,92.8533,267.2794,0,U,48043,999,25341,.15262E-3,.68E-6,0
ONEWEB-0153,2021-025C,2026-06-16T04:14:47.870016,13.13470982,.0001874,87.8952,320.4242,98.4289,261.7052,0,U,48044,999,25341,.87203E-3,.331E-5,0
ONEWEB-0154,2021-025D,2026-06-16T04:09:55.492416,13.13470240,.0001745,87.8957,320.4223,98.2007,261.9320,0,U,48045,999,25337,.5838E-3,.226E-5,0
ONEWEB-0116,2021-025E,2026-06-16T03:16:16.753728,13.13468235,.0001711,87.8960,320.4261,93.1064,267.0261,0,U,48046,999,25351,-.70414E-3,-.244E-5,0
ONEWEB-0150,2021-025F,2026-06-15T23:02:46.837248,13.13469415,.0002012,87.8961,320.4587,94.4137,265.7222,0,U,48047,999,25338,.61926E-3,.239E-5,0
ONEWEB-0107,2021-025G,2026-06-16T04:34:18.330816,13.13469498,.000199,87.8962,320.4089,102.6037,257.5315,0,U,48048,999,25339,.67079E-3,.258E-5,0
ONEWEB-0101,2021-025H,2026-06-16T03:40:39.675072,13.13471106,.0001785,87.8950,320.4320,101.6982,258.4347,0,U,48049,999,25336,-.69819E-3,-.242E-5,0
ONEWEB-0113,2021-025J,2026-06-16T04:16:13.088064,13.13894013,.0001837,87.8956,320.3376,93.4826,266.6514,0,U,48050,999,25347,.61636E-3,.239E-5,0
ONEWEB-0112,2021-025K,2026-06-16T02:51:55.207872,13.13469463,.000178,87.8962,320.4210,104.3843,255.7483,0,U,48051,999,25345,.31244E-3,.127E-5,0
ONEWEB-0156,2021-025L,2026-06-16T03:04:06.034368,13.13469804,.0001956,87.8961,320.4293,97.8709,262.2642,0,U,48052,999,25343,-.20931E-3,-.64E-6,0
ONEWEB-0161,2021-025M,2026-06-16T04:17:14.102016,13.13470668,.0001973,87.8960,320.4207,99.5761,260.5591,0,U,48053,999,25337,.77869E-3,.297E-5,0
ONEWEB-0158,2021-025N,2026-06-16T03:18:43.898112,13.13471208,.000159,87.8960,320.4256,94.9228,265.2082,0,U,48054,999,25349,-.80876E-3,-.283E-5,0
ONEWEB-0157,2021-025P,2026-06-16T03:55:18.321600,13.13470548,.0002058,87.8957,320.4266,106.6055,253.5300,0,U,48055,999,25343,-.15735E-3,-.45E-6,0
