ONEWEB-0132             
1 47278U 20100W   26167.07172021 -.00000440  00000+0 -12588-2 0  9998
2 47278  87.8939 350.8940 0001724  90.0662 270.0664 13.12443616264435
ONEWEB-0133             
1 47279U 20100X   26167.01227958 -.00000399  00000+0 -11431-2 0  9992
2 47279  87.8952 350.8819 0001670  89.1914 270.9406 13.12443608264585
ONEWEB-0134             
1 47280U 20100Y   26166.98193133 -.00000011  00000+0 -65944-4 0  9997
2 47280  87.8951 350.8849 0001629  97.8114 262.3199 13.12440311264550
ONEWEB-0135             
1 47281U 20100Z   26167.02936593  .00000287  00000+0  76319-3 0  9999
2 47281  87.8937 350.8986 0001531  95.8620 264.2683 13.12444906264585
ONEWEB-0136             
1 47282U 20100AA  26166.97176572  .00000334  00000+0  89290-3 0  9991
2 47282  87.8946 350.8912 0001601  99.2218 260.9091 13.12442881264502
ONEWEB-0137             
1 47283U 20100AB  26167.00564128 -.00000508  00000+0 -14467-2 0  9993
2 47283  87.8951 350.8945 0001948  88.8479 271.2873 13.12442951264413
ONEWEB-0138             
1 47284U 20100AC  26167.05986455 -.00000125  00000+0 -38165-3 0  9997
2 47284  87.8947 350.8891 0001701  97.5025 262.6297 13.12442405264508
ONEWEB-0139             
1 47285U 20100AD  26167.02442008  .00000178  00000+0  45993-3 0  9999
2 47285  87.8946 350.8827 0001800  92.1906 267.9429 13.12445090264571
ONEWEB-0140             
1 47286U 20100AE  26166.97854341  .00000119  00000+0  29414-3 0  9995
2 47286  87.8948 350.8825 0001652  87.1861 272.9456 13.12442228264533
ONEWEB-0141             
1 47287U 20100AF  26167.02414287  .00000200  00000+0  52060-3 0  9998
2 47287  87.8947 350.8786 0002122  89.8591 270.2780 13.12445910264522
ONEWEB-0142             
1 47288U 20100AG  26167.01258066 -.00000166  00000+0 -49580-3 0  9995
2 47288  87.8942 350.9022 0002142  97.8714 262.2657 13.12444163264512
ONEWEB-0143             
1 47289U 20100AH  26167.02258904  .00000087  00000+0  20722-3 0  9995
2 47289  87.8947 350.8992 0001833  90.3444 269.7895 13.12445060264497
ONEWEB-0144             
1 47290U 20100AJ  26167.14627181 -.00000336  00000+0 -96918-3 0  9996
2 47290  87.8950 350.8484 0001843 102.4183 257.7152 13.12443878264437
ONEWEB-0145             
1 47291U 20100AK  26167.04123036  .00000436  00000+0  11775-2 0  9992
2 47291  87.8939 350.8973 0001822  92.9461 267.1876 13.12443631264612
ONEWEB-0146             
1 47292U 20100AL  26167.03784582  .00000378  00000+0  10144-2 0  9995
2 47292  87.8946 350.8896 0001706  80.6309 279.5013 13.12443734264525
ONEWEB-0147             
1 47293U 20100AM  26167.00394706 -.00000544  00000+0 -15471-2 0  9993
2 47293  87.8948 350.8780 0001663  91.7485 268.3834 13.12442964264419
ONEWEB-0115             
1 48042U 21025A   26167.18541517  .00000287  00000+0  75165-3 0  9995
2 48042  87.8956 320.4226 0001778  94.6700 265.4632 13.13469412253463
ONEWEB-0152             
1 48043U 21025B   26167.12277367  .00000068  00000+0  15262-3 0  9998
2 48043  87.8961 320.4317 0001730  92.8533 267.2794 13.13469474253415
ONEWEB-0153             
1 48044U 21025C   26167.17694294  .00000331  00000+0  87203-3 0  9993
2 48044  87.8952 320.4242 0001874  98.4289 261.7052 13.13470982253414
ONEWEB-0154             
1 48045U 21025D   26167.17355894  .00000226  00000+0  58380-3 0  9991
2 48045  87.8957 320.4223 0001745  98.2007 261.9320 13.13470240253374
ONEWEB-0116             
1 48046U 21025E   26167.13630502 -.00000244  00000+0 -70414-3 0  9994
2 48046  87.8960 320.4261 0001711  93.1064 267.0261 13.13468235253519
ONEWEB-0150             
1 48047U 21025F   26166.96026432  .00000239  00000+0  61926-3 0  9996
2 48047  87.8961 320.4587 0002012  94.4137 265.7222 13.13469415253380
ONEWEB-0107             
1 48048U 21025G   26167.19048994  .00000258  00000+0  67079-3 0  9996
2 48048  87.8962 320.4089 0001990 102.6037 257.5315 13.13469498253398
ONEWEB-0101             
1 48049U 21025H   26167.15323698 -.00000242  00000+0 -69819-3 0  9999
2 48049  87.8950 320.4320 0001785 101.6982 258.4347 13.13471106253365
ONEWEB-0113             
1 48050U 21025J   26167.17792926  .00000239  00000+0  61636-3 0  9990
2 48050  87.8956 320.3376 0001837  93.4826 266.6514 13.13894013253471
ONEWEB-0112             
1 48051U 21025K   26167.11938898  .00000127  00000+0  31244-3 0  9993
2 48051  87.8962 320.4210 0001780 104.3843 255.7483 13.13469463253454
ONEWEB-0156             
1 48052U 21025L   26167.12784762 -.00000064  00000+0 -20931-3 0  9997
2 48052  87.8961 320.4293 0001956  97.8709 262.2642 13.13469804253434
ONEWEB-0161             
1 48053U 21025M   26167.17863544  .00000297  00000+0  77869-3 0  9997
2 48053  87.8960 320.4207 0001973  99.5761 260.5591 13.13470668253372
ONEWEB-0158             
1 48054U 21025N   26167.13800808 -.00000283  00000+0 -80876-3 0  9997
2 48054  87.8960 320.4256 0001590  94.9228 265.2082 13.13471208253490
ONEWEB-0157             
1 48055U 21025P   26167.16340650 -.00000045  00000+0 -15735-3 0  9993
2 48055  87.8957 320.4266 0002058 106.6055 253.5300 13.13470548253430
